{"fetched_at":"2026-03-29T02:12:04Z","count":15717,"tles":[{"name":"KANOPUS-V 4","line1":"1 43181U 18014B   26087.35166611  .00000845  00000+0  39380-4 0  9996","line2":"2 43181  97.3641 354.6586 0001575  91.9503 268.1914 15.22547178452432","category":"Other"}]}