{
  "norad_id": 43181,
  "name": "KANOPUS-V 4",
  "history": [
    {
      "epoch": "2026-03-28T08:26:23.951904",
      "apogee_km": 499.2438957374734,
      "perigee_km": 497.0774493927547,
      "latitude_deg": 35.895441887422045,
      "longitude_deg": -28.140053439885378,
      "semi_major_axis_km": 6876.297672565113,
      "eccentricity": 0.00015753,
      "inclination_deg": 97.3641,
      "raan_deg": 354.6586,
      "arg_perigee_deg": 91.9503,
      "mean_anomaly_deg": 268.1914,
      "mean_motion_rev_day": 15.22547178
    }
  ]
}